[
    {
        "address": "Rue de la Forge",
        "street_number": 1,
        "zipcode": 35750,
        "city": "Saint-Malon-sur Mer",
        "lat": 48.0933167969856,
        "lon": -2.09700167867071
    },
    {
        "address": "Rue de la Cour Neuve",
        "street_number": 4,
        "zipcode": 35550,
        "city": "Lohéac",
        "lat": 47.8611830621387,
        "lon": -1.89528853015298
    },
    {
        "address": "L'Orme",
        "street_number": 24,
        "zipcode": 44130,
        "city": "l'Orme",
        "lat": 47.4607398171482,
        "lon": -1.86061984249281
    },
    {
        "address": "Allée Olivier V. de Clisson",
        "street_number": 6,
        "zipcode": 44130,
        "city": "Blain",
        "lat": 47.4682602894456,
        "lon": -1.75936213109864
    },
    {
        "address": "D69",
        "street_number": null,
        "zipcode": 44170,
        "city": "Abbaretz",
        "lat": 47.5747313528269,
        "lon": -1.46183346323768
    },
    {
        "address": "Rue du Suet",
        "street_number": 9,
        "zipcode": 35780,
        "city": "La Richardais",
        "lat": 48.6102647554106,
        "lon": -2.02495594898219
    },
    {
        "address": "Rue David Macdonald Stewart",
        "street_number": null,
        "zipcode": 35400,
        "city": "Saint-Malo",
        "lat": 48.6746599420318,
        "lon": -1.96358017849965
    },
    {
        "address": "Place Jean de Châtillon",
        "street_number": 3,
        "zipcode": 35400,
        "city": "Saint-Malo",
        "lat": 48.6494228899862,
        "lon": -2.02572730201159
    },
    {
        "address": "ZA la Porte de Ker Lann, Bis Rue Charles Coude",
        "street_number": 30,
        "zipcode": 35170,
        "city": "Bruz",
        "lat": 48.0600775820013,
        "lon": -1.724190679926
    },
    {
        "address": "Le Perray",
        "street_number": 2,
        "zipcode": 35190,
        "city": "Tinténiac",
        "lat": 48.3144138422573,
        "lon": 1.72825712582721
    },
    {
        "address": "Bout de Bois",
        "street_number": 12,
        "zipcode": 44810,
        "city": "Blanquefort",
        "lat": 47.4666617090996,
        "lon": -1.58932576969524
    },
    {
        "address": "85 Rue de Rennes",
        "street_number": 85,
        "zipcode": 44119,
        "city": "Treillières",
        "lat": 47.33563521498256,
        "lon": -1.56754909262437
    },
    {
        "address": "La Planche",
        "street_number": null,
        "zipcode": 35000,
        "city": "Rennes",
        "lat": 48.0918209719215,
        "lon": -1.7405321802564
    },
    {
        "address": "Parc du Port Mulon",
        "street_number": null,
        "zipcode": 44390,
        "city": "Nort-sur-Erdre",
        "lat": 47.4299043647783,
        "lon": -1.49796558837659
    },
    {
        "address": "Route de Saint-Joseph",
        "street_number": 334,
        "zipcode": 44300,
        "city": "Nantes",
        "lat": 47.2622841139964,
        "lon": -1.52866496748723
    },
    {
        "address": "Le Petit-Bourg",
        "street_number": null,
        "zipcode": 35630,
        "city": "Le Petit-Bourg",
        "lat": 48.3156737184612,
        "lon": -1.76444927987106
    },
    {
        "address": "Lieu-dit Le Licornou",
        "street_number": null,
        "zipcode": 35720,
        "city": "Lieu-dit Le Licornou",
        "lat": 48.437007020965,
        "lon": -1.87205947904496
    },
    {
        "address": "Le Parc de la Higourdais",
        "street_number": null,
        "zipcode": 35120,
        "city": "Epiniac",
        "lat": 48.4806116047807,
        "lon": -1.68779644232234
    },
    {
        "address": "Pointe du Grouin",
        "street_number": null,
        "zipcode": 35260,
        "city": "Cancale",
        "lat": 48.7070845365989,
        "lon": -1.84595882839982
    },
    {
        "address": "Le Pas d'Héric",
        "street_number": null,
        "zipcode": 44390,
        "city": "Le pas d'Héric",
        "lat": 47.449046343184,
        "lon": -1.57478456008218
    },
    {
        "address": "D2 Clegreuc",
        "street_number": null,
        "zipcode": 44170,
        "city": "Vay",
        "lat": 47.5617200911744,
        "lon": -1.73068024258255
    },
    {
        "address": "Route de la mine",
        "street_number": null,
        "zipcode": 44170,
        "city": "Abbaretz",
        "lat": 47.5599253289616,
        "lon": -1.54197259092815
    },
    {
        "address": "Le Gavre",
        "street_number": null,
        "zipcode": 44130,
        "city": "Le Gavre",
        "lat": 47.5678200511842,
        "lon": -1.77442383886244
    },
    {
        "address": "D1, Sion-les-Mines",
        "street_number": null,
        "zipcode": 44590,
        "city": "Sion-Les-Mines",
        "lat": 47.7265557195788,
        "lon": -1.59436321373229
    },
    {
        "address": "Les Près Hauts",
        "street_number": null,
        "zipcode": 35480,
        "city": "Guipry-Messac",
        "lat": 47.7648407942693,
        "lon": -1.81696383055537
    },
    {
        "address": "D366, Pleslin-Trigavou",
        "street_number": null,
        "zipcode": 22490,
        "city": "Pleslin-Trivagou",
        "lat": 48.5357252267394,
        "lon": -1.97084959539812
    },
    {
        "address": "Le Bois  du Cobac",
        "street_number": null,
        "zipcode": 35720,
        "city": "Mesnil-Roc'h",
        "lat": 48.437854779528,
        "lon": -1.83313194403274
    },
    {
        "address": "La Bourbansais",
        "street_number": null,
        "zipcode": 35720,
        "city": "Pleuguneuc",
        "lat": 48.4028101169708,
        "lon": -1.8992788440336
    },
    {
        "address": "Château de Caradeuc",
        "street_number": null,
        "zipcode": 35190,
        "city": "Bécherel",
        "lat": 48.2912870538596,
        "lon": -1.95584637287168
    },
    {
        "address": "Bd Pasteur",
        "street_number": 53,
        "zipcode": 35170,
        "city": "Bruz",
        "lat": 48.020133331858,
        "lon": -1.74079177287845
    },
    {
        "address": "Plesse",
        "street_number": null,
        "zipcode": 44630,
        "city": "Plesse",
        "lat": 47.5100666225244,
        "lon": -1.93237844582271
    },
    {
        "address": "Les Naudières",
        "street_number": 1,
        "zipcode": 44880,
        "city": "Sautron",
        "lat": 47.2685474302978,
        "lon": -1.69700559534577
    },
    {
        "address": "Forêt du Gâvre",
        "street_number": null,
        "zipcode": 44130,
        "city": "Le Gavre",
        "lat": 47.5165745029453,
        "lon": -1.80302445446985
    },
    {
        "address": "Z.A du Bois de Teillay Quartier du Haut Bois",
        "street_number": null,
        "zipcode": 35150,
        "city": "Janzé",
        "lat": 47.9734328410075,
        "lon": -1.53172368574673
    },
    {
        "address": "Moulin de la Vallée",
        "street_number": null,
        "zipcode": 44290,
        "city": "Conquéreuil",
        "lat": 47.6379357087926,
        "lon": -1.74835272966561
    },
    {
        "address": "RD 81",
        "street_number": null,
        "zipcode": 44360,
        "city": "Vigneux-de-Bretagne",
        "lat": 47.2909405266578,
        "lon": -1.70000584008781
    },
    {
        "address": "10 La Grand Haie",
        "street_number": 10,
        "zipcode": 44390,
        "city": "Saffré",
        "lat": 47.4741721939922,
        "lon": -1.5613182815625
    },
    {
        "address": "Boubalin",
        "street_number": null,
        "zipcode": 44810,
        "city": "Héric",
        "lat": 47.4358824319368,
        "lon": -1.6608270667293
    },
    {
        "address": "La Hattais",
        "street_number": null,
        "zipcode": 35390,
        "city": "Grand-Fougeray",
        "lat": 47.7671929641194,
        "lon": -1.76189144424474
    },
    {
        "address": "La Bijouterie",
        "street_number": null,
        "zipcode": 35440,
        "city": "Feins",
        "lat": 48.3393052445054,
        "lon": -1.63803950718214
    },
    {
        "address": "Sent. du Halage",
        "street_number": null,
        "zipcode": 35190,
        "city": "Saint-Domineuc",
        "lat": 48.3790826009083,
        "lon": -1.88339856858959
    },
    {
        "address": "2 Av. de la Hoguette",
        "street_number": 2,
        "zipcode": 35400,
        "city": "Saint-Malo",
        "lat": 48.658906277934,
        "lon": -1.99829902281003
    },
    {
        "address": "Terrain de l'enclos",
        "street_number": null,
        "zipcode": 22490,
        "city": "Plouër-sur-Rance",
        "lat": 48.5258318643571,
        "lon": -1.98605668384994
    },
    {
        "address": "Rue de l'égalité",
        "street_number": 9,
        "zipcode": 35720,
        "city": "Mesnil-Roc'h",
        "lat": 48.446369531396016,
        "lon": -1.9104513679207893
    },
    {
        "address": "Place de l'église",
        "street_number": 13,
        "zipcode": 35190,
        "city": "Saint-Domineuc",
        "lat": 48.37280190724012,
        "lon": -1.8755520996562436
    },
    {
        "address": "Rue Françoise Leroux",
        "street_number": 2,
        "zipcode": 35190,
        "city": "Tinténac",
        "lat": 48.330170981355245,
        "lon": -1.841928376332642
    },
    {
        "address": "Rue de Montsifrot",
        "street_number": 4,
        "zipcode": 35520,
        "city": "La Mézière",
        "lat": 48.22012892876349,
        "lon": -1.7547555257178882
    },
    {
        "address": "Imp. des Châtaigners",
        "street_number": 3,
        "zipcode": 35760,
        "city": "Saint-Grégoire",
        "lat": 48.178809170635134,
        "lon": -1.722406081045125
    },
    {
        "address": "Rue Newton",
        "street_number": 8,
        "zipcode": 35760,
        "city": "Montgermont",
        "lat": 48.15561064077974,
        "lon": -1.7072866346218152
    }
]
